STARLINK-36670          
1 67828U 26033H   26073.58335648 -.01942045  00000+0 -20012-1 0  9997
2 67828  42.9990 241.7012 0001459 278.4156 173.7544 15.67066238  5454
STARLINK-36144          
1 67829U 26033J   26073.58335648 -.01941744  00000+0 -20943-1 0  9996
2 67829  42.9990 241.7272 0001480 276.8896 164.6181 15.65948439  5456
STARLINK-36611          
1 67830U 26033K   26073.58335648 -.01942829  00000+0 -19176-1 0  9999
2 67830  42.9989 241.6473 0001469 277.5569 196.1390 15.68110575  5457
STARLINK-36661          
1 67831U 26033L   26073.58335648 -.01942402  00000+0 -23966-1 0  9999
2 67831  42.9995 241.8340 0001615 270.3766 128.3778 15.62595105  5450
STARLINK-36662          
1 67832U 26033M   26073.60474367  .00696869  00000+0  27132-2 0  9995
2 67832  42.9964 240.2934 0003127 298.7172  61.3386 15.84526221  5418
STARLINK-36659          
1 67833U 26033N   26071.84283128 -.00484356  00000+0 -25046-2 0  9993
2 67833  42.9970 252.0859 0001816 307.9497  52.1210 15.81357226  5125
STARLINK-36655          
1 67834U 26033P   26073.58335648 -.01946607  00000+0 -19208-1 0  9997
2 67834  42.9988 241.6154 0001262 273.0867 213.5992 15.68126396  5459
STARLINK-36657          
1 67835U 26033Q   26073.58335648 -.01939682  00000+0 -16093-1 0  9992
2 67835  42.9990 241.4992 0001325 271.7664 261.0380 15.72220008  5450
STARLINK-36650          
1 67836U 26033R   26073.58335648 -.01941887  00000+0 -22851-1 0  9992
2 67836  42.9990 241.7433 0001443 274.3749 160.8338 15.63788899  5454
STARLINK-36649          
1 67837U 26033S   26073.58335648 -.01941100  00000+0 -19488-1 0  9993
2 67837  42.9989 241.5954 0001403 275.4786 218.8548 15.67697501  5458
STARLINK-36654          
1 67838U 26033T   26073.58335648 -.01943990  00000+0 -21191-1 0  9997
2 67838  42.9986 241.6502 0001427 279.4644 192.5855 15.65691390  5456
STARLINK-36652          
1 67839U 26033U   26073.58335648 -.01944464  00000+0 -22704-1 0  9996
2 67839  42.9991 241.7030 0001484 276.4168 174.6616 15.63986990  5458
STARLINK-36651          
1 67840U 26033V   26073.58335648 -.01940507  00000+0 -21306-1 0  9999
2 67840  42.9990 241.6350 0001362 278.6530 199.4240 15.65508879  5451
STARLINK-36656          
1 67841U 26033W   26073.58335648 -.01940107  00000+0 -20368-1 0  9993
2 67841  42.9988 241.5871 0001369 274.9317 222.5371 15.66608403  5453
STARLINK-36653          
1 67842U 26033X   26073.58335648 -.01937491  00000+0 -21191-1 0  9991
2 67842  42.9988 241.6104 0001346 279.0845 208.8587 15.65599066  5450
STARLINK-36589          
1 67843U 26033Y   26073.58335648 -.01938282  00000+0 -20316-1 0  9999
2 67843  42.9990 241.5646 0001304 275.7709 230.7704 15.66646397  5456
